FALCONSAT-6             
1 43815U 18099BK  26068.72544389  .00005029  00000+0  19477-3 0  9998
2 43815  97.3865 145.8165 0014370 297.0944 181.0714 15.26532865398556
STARLINK-30863          
1 59027U 24038E   26068.30243000 -.00000680  00000+0 -15180-4 0  9998
2 59027  43.0016  29.6402 0001015 236.7513 123.3241 15.27577328114588
